{"fetched_at":"2026-07-12T07:15:30.473Z","source":"https://celestrak.org/NORAD/elements/gp.php?NAME=BRO&FORMAT=JSON","constellation":"unseenlabs","records":[{"OBJECT_NAME":"BRO-1","OBJECT_ID":"2019-054A","EPOCH":"2026-07-12T03:21:40.738176","CLASSIFICATION_TYPE":"U","MEAN_MOTION":16.1172278,"ECCENTRICITY":0.000882,"INCLINATION":44.9817,"RA_OF_ASC_NODE":137.8326,"ARG_OF_PERICENTER":168.1963,"MEAN_ANOMALY":191.916,"EPHEMERIS_TYPE":0,"NORAD_CAT_ID":44495,"ELEMENT_SET_NO":999,"REV_AT_EPOCH":38373,"BSTAR":0.00080952,"MEAN_MOTION_DOT":0.00890849,"MEAN_MOTION_DDOT":0.00046885},{"OBJECT_NAME":"BRO-5","OBJECT_ID":"2022-002CF","EPOCH":"2026-07-11T22:38:19.944960","CLASSIFICATION_TYPE":"U","MEAN_MOTION":15.48750666,"ECCENTRICITY":0.00050255,"INCLINATION":97.2993,"RA_OF_ASC_NODE":266.853,"ARG_OF_PERICENTER":215.8478,"MEAN_ANOMALY":144.2437,"EPHEMERIS_TYPE":0,"NORAD_CAT_ID":51061,"ELEMENT_SET_NO":999,"REV_AT_EPOCH":25008,"BSTAR":0.0003685395,"MEAN_MOTION_DOT":0.00019707,"MEAN_MOTION_DDOT":0},{"OBJECT_NAME":"BRO-6","OBJECT_ID":"2022-047AE","EPOCH":"2026-07-11T21:43:45.844608","CLASSIFICATION_TYPE":"U","MEAN_MOTION":15.52379248,"ECCENTRICITY":0.00029565,"INCLINATION":97.3395,"RA_OF_ASC_NODE":284.4653,"ARG_OF_PERICENTER":329.8377,"MEAN_ANOMALY":30.2705,"EPHEMERIS_TYPE":0,"NORAD_CAT_ID":52422,"ELEMENT_SET_NO":999,"REV_AT_EPOCH":23498,"BSTAR":0.00046210675,"MEAN_MOTION_DOT":0.00028144,"MEAN_MOTION_DDOT":0},{"OBJECT_NAME":"BRO-8","OBJECT_ID":"2023-001C","EPOCH":"2026-07-11T23:17:34.403712","CLASSIFICATION_TYPE":"U","MEAN_MOTION":15.50607881,"ECCENTRICITY":0.00052231,"INCLINATION":97.3196,"RA_OF_ASC_NODE":258.5361,"ARG_OF_PERICENTER":50.9674,"MEAN_ANOMALY":309.2042,"EPHEMERIS_TYPE":0,"NORAD_CAT_ID":55011,"ELEMENT_SET_NO":999,"REV_AT_EPOCH":19604,"BSTAR":0.0003995946,"MEAN_MOTION_DOT":0.00022828,"MEAN_MOTION_DDOT":0},{"OBJECT_NAME":"BRO-11","OBJECT_ID":"2023-174J","EPOCH":"2026-07-11T22:39:59.400864","CLASSIFICATION_TYPE":"U","MEAN_MOTION":15.27572416,"ECCENTRICITY":0.00118961,"INCLINATION":97.3903,"RA_OF_ASC_NODE":269.5634,"ARG_OF_PERICENTER":117.6032,"MEAN_ANOMALY":242.6417,"EPHEMERIS_TYPE":0,"NORAD_CAT_ID":58264,"ELEMENT_SET_NO":999,"REV_AT_EPOCH":14853,"BSTAR":0.000097355388,"MEAN_MOTION_DOT":0.00002555,"MEAN_MOTION_DDOT":0},{"OBJECT_NAME":"BRO-13","OBJECT_ID":"2024-043K","EPOCH":"2026-07-11T21:31:34.438368","CLASSIFICATION_TYPE":"U","MEAN_MOTION":14.96645382,"ECCENTRICITY":0.00076024,"INCLINATION":97.8519,"RA_OF_ASC_NODE":323.998,"ARG_OF_PERICENTER":275.591,"MEAN_ANOMALY":84.4444,"EPHEMERIS_TYPE":0,"NORAD_CAT_ID":59107,"ELEMENT_SET_NO":999,"REV_AT_EPOCH":12831,"BSTAR":0.000070009148,"MEAN_MOTION_DOT":0.00000739,"MEAN_MOTION_DDOT":0},{"OBJECT_NAME":"BRO-12","OBJECT_ID":"2024-043L","EPOCH":"2026-07-11T22:56:25.689696","CLASSIFICATION_TYPE":"U","MEAN_MOTION":14.96889871,"ECCENTRICITY":0.00070966,"INCLINATION":97.8505,"RA_OF_ASC_NODE":324.2258,"ARG_OF_PERICENTER":270.0389,"MEAN_ANOMALY":90.0019,"EPHEMERIS_TYPE":0,"NORAD_CAT_ID":59108,"ELEMENT_SET_NO":999,"REV_AT_EPOCH":12834,"BSTAR":0.000048111179,"MEAN_MOTION_DOT":0.00000492,"MEAN_MOTION_DDOT":0},{"OBJECT_NAME":"BRO-14","OBJECT_ID":"2024-149CM","EPOCH":"2026-07-11T16:08:15.761760","CLASSIFICATION_TYPE":"U","MEAN_MOTION":14.96229545,"ECCENTRICITY":0.00069891,"INCLINATION":97.6861,"RA_OF_ASC_NODE":268.01,"ARG_OF_PERICENTER":27.4384,"MEAN_ANOMALY":332.7206,"EPHEMERIS_TYPE":0,"NORAD_CAT_ID":60551,"ELEMENT_SET_NO":999,"REV_AT_EPOCH":10365,"BSTAR":0.000055478545,"MEAN_MOTION_DOT":0.00000569,"MEAN_MOTION_DDOT":0},{"OBJECT_NAME":"BRO-15","OBJECT_ID":"2024-149CP","EPOCH":"2026-07-09T10:45:19.005696","CLASSIFICATION_TYPE":"U","MEAN_MOTION":14.96220766,"ECCENTRICITY":0.00085255,"INCLINATION":97.6798,"RA_OF_ASC_NODE":265.407,"ARG_OF_PERICENTER":23.7668,"MEAN_ANOMALY":336.3946,"EPHEMERIS_TYPE":0,"NORAD_CAT_ID":60553,"ELEMENT_SET_NO":999,"REV_AT_EPOCH":10333,"BSTAR":0.000069493641,"MEAN_MOTION_DOT":0.00000727,"MEAN_MOTION_DDOT":0},{"OBJECT_NAME":"BRO-16","OBJECT_ID":"2025-009AX","EPOCH":"2026-07-11T18:23:14.646336","CLASSIFICATION_TYPE":"U","MEAN_MOTION":15.24113003,"ECCENTRICITY":0.00018536,"INCLINATION":97.4055,"RA_OF_ASC_NODE":272.9493,"ARG_OF_PERICENTER":160.5219,"MEAN_ANOMALY":199.609,"EPHEMERIS_TYPE":0,"NORAD_CAT_ID":62654,"ELEMENT_SET_NO":999,"REV_AT_EPOCH":8254,"BSTAR":0.00009310811,"MEAN_MOTION_DOT":0.00002191,"MEAN_MOTION_DDOT":0},{"OBJECT_NAME":"BRO-18","OBJECT_ID":"2025-135Y","EPOCH":"2026-07-11T21:42:44.764128","CLASSIFICATION_TYPE":"U","MEAN_MOTION":15.22157202,"ECCENTRICITY":0.00023285,"INCLINATION":97.4649,"RA_OF_ASC_NODE":307.7468,"ARG_OF_PERICENTER":120.3226,"MEAN_ANOMALY":239.8241,"EPHEMERIS_TYPE":0,"NORAD_CAT_ID":64550,"ELEMENT_SET_NO":999,"REV_AT_EPOCH":5863,"BSTAR":0.000095318819,"MEAN_MOTION_DOT":0.00002116,"MEAN_MOTION_DDOT":0},{"OBJECT_NAME":"BRO-17","OBJECT_ID":"2025-276G","EPOCH":"2026-07-11T16:52:02.273376","CLASSIFICATION_TYPE":"U","MEAN_MOTION":15.1814184,"ECCENTRICITY":0.00050596,"INCLINATION":97.4188,"RA_OF_ASC_NODE":265.3383,"ARG_OF_PERICENTER":275.3217,"MEAN_ANOMALY":84.744,"EPHEMERIS_TYPE":0,"NORAD_CAT_ID":66672,"ELEMENT_SET_NO":999,"REV_AT_EPOCH":3411,"BSTAR":0.000085531826,"MEAN_MOTION_DOT":0.00001679,"MEAN_MOTION_DDOT":0},{"OBJECT_NAME":"BRO-20","OBJECT_ID":"2025-276J","EPOCH":"2026-07-11T17:52:57.777024","CLASSIFICATION_TYPE":"U","MEAN_MOTION":15.18314671,"ECCENTRICITY":0.00046606,"INCLINATION":97.4165,"RA_OF_ASC_NODE":265.368,"ARG_OF_PERICENTER":279.3756,"MEAN_ANOMALY":80.6952,"EPHEMERIS_TYPE":0,"NORAD_CAT_ID":66674,"ELEMENT_SET_NO":999,"REV_AT_EPOCH":3412,"BSTAR":0.000096616504,"MEAN_MOTION_DOT":0.00001915,"MEAN_MOTION_DDOT":0},{"OBJECT_NAME":"BRO-19","OBJECT_ID":"2026-067G","EPOCH":"2026-07-11T19:40:50.496096","CLASSIFICATION_TYPE":"U","MEAN_MOTION":15.18975385,"ECCENTRICITY":0.00023702,"INCLINATION":97.4491,"RA_OF_ASC_NODE":150.9265,"ARG_OF_PERICENTER":111.67,"MEAN_ANOMALY":248.4787,"EPHEMERIS_TYPE":0,"NORAD_CAT_ID":68422,"ELEMENT_SET_NO":999,"REV_AT_EPOCH":1568,"BSTAR":0.00010818936,"MEAN_MOTION_DOT":0.00002194,"MEAN_MOTION_DDOT":0},{"OBJECT_NAME":"BRO-21","OBJECT_ID":"2026-100AD","EPOCH":"2026-07-11T15:44:10.654368","CLASSIFICATION_TYPE":"U","MEAN_MOTION":15.21609012,"ECCENTRICITY":0.00072053,"INCLINATION":97.402,"RA_OF_ASC_NODE":90.1493,"ARG_OF_PERICENTER":342.6742,"MEAN_ANOMALY":17.4247,"EPHEMERIS_TYPE":0,"NORAD_CAT_ID":69007,"ELEMENT_SET_NO":999,"REV_AT_EPOCH":1052,"BSTAR":0.000067436934,"MEAN_MOTION_DOT":0.00001453,"MEAN_MOTION_DDOT":0},{"OBJECT_NAME":"BRO-22","OBJECT_ID":"2026-132C","EPOCH":"2026-07-11T15:19:09.514848","CLASSIFICATION_TYPE":"U","MEAN_MOTION":14.99799209,"ECCENTRICITY":0.00161739,"INCLINATION":97.6832,"RA_OF_ASC_NODE":256.005,"ARG_OF_PERICENTER":193.6747,"MEAN_ANOMALY":166.404,"EPHEMERIS_TYPE":0,"NORAD_CAT_ID":69504,"ELEMENT_SET_NO":999,"REV_AT_EPOCH":444,"BSTAR":0.000054609606,"MEAN_MOTION_DOT":0.00000617,"MEAN_MOTION_DDOT":0}]}
