BRO-1                   
1 44495U 19054A   26193.14005484  .00890849  46885-3  80952-3 0  9991
2 44495  44.9817 137.8326 0008820 168.1963 191.9160 16.11722780383739
BRO-5                   
1 51061U 22002CF  26192.94328640  .00019707  00000+0  36854-3 0  9997
2 51061  97.2993 266.8530 0005025 215.8478 144.2437 15.48750666250089
BRO-6                   
1 52422U 22047AE  26192.90539172  .00028144  00000+0  46211-3 0  9991
2 52422  97.3395 284.4653 0002956 329.8377  30.2705 15.52379248234985
BRO-8                   
1 55011U 23001C   26192.97053708  .00022828  00000+0  39959-3 0  9996
2 55011  97.3196 258.5361 0005223  50.9674 309.2042 15.50607881196043
BRO-11                  
1 58264U 23174J   26192.94443751  .00002555  00000+0  97355-4 0  9998
2 58264  97.3903 269.5634 0011896 117.6032 242.6417 15.27572416148535
BRO-13                  
1 59107U 24043K   26192.89692637  .00000739  00000+0  70009-4 0  9993
2 59107  97.8519 323.9980 0007602 275.5910  84.4444 14.96645382128312
BRO-12                  
1 59108U 24043L   26192.95585289  .00000492  00000+0  48111-4 0  9990
2 59108  97.8505 324.2258 0007096 270.0389  90.0019 14.96889871128344
BRO-14                  
1 60551U 24149CM  26192.67240465  .00000569  00000+0  55479-4 0  9994
2 60551  97.6861 268.0100 0006989  27.4384 332.7206 14.96229545103658
BRO-15                  
1 60553U 24149CP  26190.44813664  .00000727  00000+0  69494-4 0  9994
2 60553  97.6798 265.4070 0008525  23.7668 336.3946 14.96220766103330
BRO-16                  
1 62654U 25009AX  26192.76614174  .00002191  00000+0  93108-4 0  9992
2 62654  97.4055 272.9493 0001853 160.5219 199.6090 15.24113003 82545
BRO-18                  
1 64550U 25135Y   26192.90468477  .00002116  00000+0  95319-4 0  9991
2 64550  97.4649 307.7468 0002328 120.3226 239.8241 15.22157202 58635
BRO-17                  
1 66672U 25276G   26192.70280409  .00001679  00000+0  85532-4 0  9998
2 66672  97.4188 265.3383 0005059 275.3217  84.7440 15.18141840 34111
BRO-20                  
1 66674U 25276J   26192.74511316  .00001915  00000+0  96617-4 0  9997
2 66674  97.4165 265.3680 0004660 279.3756  80.6952 15.18314671 34125
BRO-19                  
1 68422U 26067G   26192.82002889  .00002194  00000+0  10819-3 0  9997
2 68422  97.4491 150.9265 0002370 111.6700 248.4787 15.18975385 15686
BRO-21                  
1 69007U 26100AD  26192.65567887  .00001453  00000+0  67437-4 0  9996
2 69007  97.4020  90.1493 0007205 342.6742  17.4247 15.21609012 10524
BRO-22                  
1 69504U 26132C   26192.63830457  .00000617  00000+0  54610-4 0  9997
2 69504  97.6832 256.0050 0016173 193.6747 166.4040 14.99799209  4446
